OBJECT_NAME,OBJECT_ID,EPOCH,MEAN_MOTION,ECCENTRICITY,INCLINATION,RA_OF_ASC_NODE,ARG_OF_PERICENTER,MEAN_ANOMALY,EPHEMERIS_TYPE,CLASSIFICATION_TYPE,NORAD_CAT_ID,ELEMENT_SET_NO,REV_AT_EPOCH,BSTAR,MEAN_MOTION_DOT,MEAN_MOTION_DDOT
BEIDOU-2 IGSO-5 (C10),2011-073A,2026-07-02T17:30:18.330912,1.00270596,.01145273,47.6496,271.3544,222.0502,141.5350,0,U,37948,999,5329,0,-.128E-5,0
LUCH 5A (SDCM/PRN 140),2011-074B,2026-07-04T21:31:30.743904,1.00272677,.00026538,8.7957,73.5495,47.6496,291.5283,0,U,37951,999,5322,0,-.4E-6,0
BEIDOU-2 G5 (C05),2012-008A,2026-07-04T22:11:00.316608,1.00268190,.0007571,3.6153,69.5917,274.9939,329.8548,0,U,38091,999,5254,0,.69E-6,0
BEIDOU-2 M3 (C11),2012-018A,2026-07-04T21:47:58.780608,1.86230265,.00206098,55.7413,304.2781,272.9505,86.8343,0,U,38250,999,9627,0,-.6E-6,0
BEIDOU-2 M4 (C12),2012-018B,2026-07-01T01:57:58.611168,1.86229794,.00115796,55.6447,303.6195,274.1308,85.7452,0,U,38251,999,9620,0,-.69E-6,0
SES-5 (EGNOS/PRN 136),2012-036A,2026-07-02T15:43:01.322688,1.00270830,.00022676,0.0450,320.1883,138.1529,63.0821,0,U,38652,999,4461,0,.44E-6,0
BEIDOU-2 M6 (C14),2012-050B,2026-07-02T09:39:35.358912,1.86231039,.00132752,56.5573,62.3914,359.5324,0.5356,0,U,38775,999,9359,0,-.38E-6,0
GSAT-10 (GAGAN/PRN 128),2012-051B,2026-07-04T19:24:55.857312,1.00269957,.00079758,0.0456,240.0612,213.9412,203.0469,0,U,38779,999,5027,0,-.152E-5,0
GPS BIIF-3  (PRN 24),2012-053A,2026-07-04T18:23:03.469632,2.00567791,.01813576,53.5885,142.8793,66.0417,295.8173,0,U,38833,999,9979,0,.62E-6,0
GSAT0103 (GALILEO-FM3),2012-055A,2026-07-03T07:31:30.168768,1.70473430,.00041045,55.8153,101.1032,308.8559,51.1196,0,U,38857,999,8528,0,-.5E-7,0
BEIDOU-2 G6 (C02),2012-059A,2026-07-04T19:25:10.833024,1.00269918,.00093246,4.4635,73.3380,330.1655,254.6093,0,U,38953,999,5008,0,-.164E-5,0
LUCH 5B (SDCM/PRN 125),2012-061A,2026-07-04T22:21:48.556800,1.00272316,.00032339,10.5196,49.7030,136.9193,55.5268,0,U,38977,999,4978,0,-.128E-5,0
COSMOS 2485 (747),2013-019A,2026-06-28T15:23:45.642336,2.13103400,.00228978,65.4258,73.2198,232.6425,127.1980,0,U,39155,999,10252,0,-.37E-6,0
GPS BIIF-4  (PRN 27),2013-023A,2026-07-04T03:14:14.038944,2.00563447,.01414218,54.4910,268.2829,51.0912,310.2310,0,U,39166,999,9622,0,-.1E-6,0
IRNSS-1A,2013-034A,2026-07-04T17:34:24.053376,1.00280121,.0017855,35.7585,63.6187,181.6681,356.1728,0,U,39199,999,4754,0,.69E-6,0
GPS BIIF-5  (PRN 30),2014-008A,2026-07-04T15:14:44.513952,2.00560936,.00841947,53.6568,148.6082,231.4719,127.7443,0,U,39533,999,9003,0,.67E-6,0
ASTRA 5B (EGNOS/PRN 123),2014-011B,2026-07-02T20:26:31.722720,1.00274657,.00022147,0.0771,302.4799,165.1332,143.4211,0,U,39617,999,4482,0,.148E-5,0
COSMOS 2492 (754),2014-012A,2026-07-04T16:49:03.155808,2.13103564,.0010255,65.2863,313.3408,320.7541,39.1820,0,U,39620,999,9561,0,-.43E-6,0
IRNSS-1B,2014-017A,2026-07-04T17:34:16.565088,1.00272447,.00229436,28.8946,240.1001,195.0922,166.1625,0,U,39635,999,4497,0,.137E-5,0
LUCH 5V (SDCM/PRN 141),2014-023A,2026-07-04T23:03:32.611968,1.00269028,.00026859,5.1742,69.5686,59.9217,234.0812,0,U,39727,999,4453,0,-.257E-5,0
GPS BIIF-6  (PRN 06),2014-026A,2026-07-04T09:53:54.844512,2.00559808,.00381092,56.4892,330.8473,326.1059,33.6522,0,U,39741,999,8888,0,-.7E-6,0
COSMOS 2500 (755),2014-032A,2026-07-03T22:21:43.998336,2.13106144,.00078642,65.2222,313.1126,187.8325,172.1641,0,U,40001,999,9381,0,-.44E-6,0
GPS BIIF-7  (PRN 09),2014-045A,2026-07-04T12:06:07.258752,2.00559608,.00340585,55.3639,87.7751,118.3275,242.0574,0,U,40105,999,8642,0,-.9E-7,0
GSAT0201 (GALILEO 5),2014-050A,2026-07-03T01:08:25.114560,1.85520088,.1676668,48.8580,272.7857,180.0160,180.0435,0,U,40128,999,7861,0,-.3E-6,0
GSAT0202 (GALILEO 6),2014-050B,2026-07-03T07:16:18.764544,1.85520697,.16780952,48.8744,271.8608,180.7462,179.0334,0,U,40129,999,8078,0,-.29E-6,0
IRNSS-1C,2014-061A,2026-07-04T18:27:09.510912,1.00273986,.00221145,6.5614,88.5957,4.3839,189.5683,0,U,40269,999,4286,0,-.152E-5,0
GPS BIIF-8  (PRN 03),2014-068A,2026-07-02T09:05:07.844928,2.00577219,.00673707,56.9979,30.3698,71.1337,289.6561,0,U,40294,999,8551,0,-.59E-6,0
COSMOS 2501 (702K),2014-075A,2026-07-04T15:55:05.879136,2.13101472,.00226528,63.6179,189.7671,212.6987,147.1839,0,U,40315,999,9022,0,.96E-6,0
GPS BIIF-9  (PRN 26),2015-013A,2026-07-04T12:19:38.534016,2.00550348,.01099913,53.1670,203.4610,40.2716,320.5801,0,U,40534,999,8217,0,.78E-6,0
GSAT0203 (GALILEO 7),2015-017A,2026-07-03T15:17:27.453120,1.70476291,.00023847,56.7810,341.1480,260.5920,99.3760,0,U,40544,999,6948,0,-.75E-6,0
GSAT0204 (GALILEO 8),2015-017B,2026-07-04T11:30:32.846112,1.70475782,.00024509,56.7872,341.1436,236.0411,123.9323,0,U,40545,999,3254,0,-.73E-6,0
